SL-16 R/B               
1 22566U 93016B   26030.47282880  .00000275  00000+0  16588-3 0  9994
2 22566  71.0086 295.4515 0009649   8.8446 351.2845 14.15301871696767
COSMOS 2242             
1 22626U 93024A   26030.25496821  .00003033  00000+0  26483-3 0  9998
2 22626  82.5210 303.4727 0017991  75.6173 284.7045 14.96378951774641
SL-16 R/B               
1 22803U 93059B   26030.43354572 -.00000004  00000+0  21946-4 0  9995
2 22803  70.9897  91.8054 0019550 268.6233  91.2651 14.17223164674118
ARIANE 40 R/B           
1 22830U 93061H   26030.43120750  .00000370  00000+0  15131-3 0  9990
2 22830  98.4995 100.0583 0011358  42.7136 317.4929 14.32839801688623
COSMOS 2278             
1 23087U 94023A   26030.33595494 -.00000164  00000+0 -61038-4 0  9995
2 23087  71.0517 255.3412 0006286  85.8527 274.3314 14.14366328639383
SL-16 R/B               
1 23088U 94023B   26030.47051887 -.00000229  00000+0 -93526-4 0  9993
2 23088  71.0003 151.1517 0004333 320.2905  39.7900 14.15005449640684
SL-16 R/B               
1 23343U 94074B   26030.03647446  .00000777  00000+0  11086-3 0  9993
2 23343  97.7156  62.4114 0006434   0.4842  55.8664 14.79359406681530
SL-16 R/B               
1 23405U 94077B   26030.46705861 -.00000210  00000+0 -83055-4 0  9998
2 23405  70.9820  72.9041 0004698 246.6827 113.3801 14.15557695610829
ARIANE 40+ R/B          
1 23561U 95021B   26030.44508245  .00000433  00000+0  15209-3 0  9996
2 23561  98.4576 102.4308 0005739 253.2488 117.2720 14.39742503613741
SL-16 R/B               
1 23705U 95058B   26030.33083166  .00000011  00000+0  29990-4 0  9999
2 23705  71.0192 260.7896 0012848 188.0730 172.0188 14.15487927562421
SL-16 R/B               
1 24298U 96051B   26030.07252440  .00000084  00000+0  72028-4 0  9995
2 24298  70.7568 256.9793 0018204 201.2437 158.7929 14.12404647516191
ORBVIEW 2 (SEASTAR)     
1 24883U 97037A   26030.42985065  .00000453  00000+0  17391-3 0  9996
2 24883  98.8502 193.7423 0002573 151.8604 208.2720 14.35463565502987
