CCSDS_OMM_VERS = 2.0
CREATION_DATE  = 
ORIGINATOR     = 

OBJECT_NAME    = SL-16 R/B
OBJECT_ID      = 1993-016B
CENTER_NAME    = EARTH
REF_FRAME      = TEME
TIME_SYSTEM    = UTC
MEAN_ELEMENT_THEORY = SGP/SGP4

EPOCH          = 2026-01-30T11:20:52.408320
MEAN_MOTION    = 14.15301871
ECCENTRICITY   = .0009649
INCLINATION    = 71.0086
RA_OF_ASC_NODE = 295.4515
ARG_OF_PERICENTER = 8.8446
MEAN_ANOMALY   = 351.2845

EPHEMERIS_TYPE = 0
CLASSIFICATION_TYPE = U
NORAD_CAT_ID   = 22566
ELEMENT_SET_NO = 999
REV_AT_EPOCH   = 69676
BSTAR          = .16588E-3
MEAN_MOTION_DOT = .275E-5
MEAN_MOTION_DDOT = 0

CCSDS_OMM_VERS = 2.0
CREATION_DATE  = 
ORIGINATOR     = 

OBJECT_NAME    = COSMOS 2242
OBJECT_ID      = 1993-024A
CENTER_NAME    = EARTH
REF_FRAME      = TEME
TIME_SYSTEM    = UTC
MEAN_ELEMENT_THEORY = SGP/SGP4

EPOCH          = 2026-01-30T06:07:09.253344
MEAN_MOTION    = 14.96378951
ECCENTRICITY   = .0017991
INCLINATION    = 82.5210
RA_OF_ASC_NODE = 303.4727
ARG_OF_PERICENTER = 75.6173
MEAN_ANOMALY   = 284.7045

EPHEMERIS_TYPE = 0
CLASSIFICATION_TYPE = U
NORAD_CAT_ID   = 22626
ELEMENT_SET_NO = 999
REV_AT_EPOCH   = 77464
BSTAR          = .26483E-3
MEAN_MOTION_DOT = .3033E-4
MEAN_MOTION_DDOT = 0

CCSDS_OMM_VERS = 2.0
CREATION_DATE  = 
ORIGINATOR     = 

OBJECT_NAME    = SL-16 R/B
OBJECT_ID      = 1993-059B
CENTER_NAME    = EARTH
REF_FRAME      = TEME
TIME_SYSTEM    = UTC
MEAN_ELEMENT_THEORY = SGP/SGP4

EPOCH          = 2026-01-30T10:24:18.350208
MEAN_MOTION    = 14.17223164
ECCENTRICITY   = .001955
INCLINATION    = 70.9897
RA_OF_ASC_NODE = 91.8054
ARG_OF_PERICENTER = 268.6233
MEAN_ANOMALY   = 91.2651

EPHEMERIS_TYPE = 0
CLASSIFICATION_TYPE = U
NORAD_CAT_ID   = 22803
ELEMENT_SET_NO = 999
REV_AT_EPOCH   = 67411
BSTAR          = .21946E-4
MEAN_MOTION_DOT = -.4E-7
MEAN_MOTION_DDOT = 0

CCSDS_OMM_VERS = 2.0
CREATION_DATE  = 
ORIGINATOR     = 

OBJECT_NAME    = ARIANE 40 R/B
OBJECT_ID      = 1993-061H
CENTER_NAME    = EARTH
REF_FRAME      = TEME
TIME_SYSTEM    = UTC
MEAN_ELEMENT_THEORY = SGP/SGP4

EPOCH          = 2026-01-30T10:20:56.328000
MEAN_MOTION    = 14.32839801
ECCENTRICITY   = .0011358
INCLINATION    = 98.4995
RA_OF_ASC_NODE = 100.0583
ARG_OF_PERICENTER = 42.7136
MEAN_ANOMALY   = 317.4929

EPHEMERIS_TYPE = 0
CLASSIFICATION_TYPE = U
NORAD_CAT_ID   = 22830
ELEMENT_SET_NO = 999
REV_AT_EPOCH   = 68862
BSTAR          = .15131E-3
MEAN_MOTION_DOT = .37E-5
MEAN_MOTION_DDOT = 0

CCSDS_OMM_VERS = 2.0
CREATION_DATE  = 
ORIGINATOR     = 

OBJECT_NAME    = COSMOS 2278
OBJECT_ID      = 1994-023A
CENTER_NAME    = EARTH
REF_FRAME      = TEME
TIME_SYSTEM    = UTC
MEAN_ELEMENT_THEORY = SGP/SGP4

EPOCH          = 2026-01-30T08:03:46.506816
MEAN_MOTION    = 14.14366328
ECCENTRICITY   = .0006286
INCLINATION    = 71.0517
RA_OF_ASC_NODE = 255.3412
ARG_OF_PERICENTER = 85.8527
MEAN_ANOMALY   = 274.3314

EPHEMERIS_TYPE = 0
CLASSIFICATION_TYPE = U
NORAD_CAT_ID   = 23087
ELEMENT_SET_NO = 999
REV_AT_EPOCH   = 63938
BSTAR          = -.61038E-4
MEAN_MOTION_DOT = -.164E-5
MEAN_MOTION_DDOT = 0

CCSDS_OMM_VERS = 2.0
CREATION_DATE  = 
ORIGINATOR     = 

OBJECT_NAME    = SL-16 R/B
OBJECT_ID      = 1994-023B
CENTER_NAME    = EARTH
REF_FRAME      = TEME
TIME_SYSTEM    = UTC
MEAN_ELEMENT_THEORY = SGP/SGP4

EPOCH          = 2026-01-30T11:17:32.830368
MEAN_MOTION    = 14.15005449
ECCENTRICITY   = .0004333
INCLINATION    = 71.0003
RA_OF_ASC_NODE = 151.1517
ARG_OF_PERICENTER = 320.2905
MEAN_ANOMALY   = 39.7900

EPHEMERIS_TYPE = 0
CLASSIFICATION_TYPE = U
NORAD_CAT_ID   = 23088
ELEMENT_SET_NO = 999
REV_AT_EPOCH   = 64068
BSTAR          = -.93526E-4
MEAN_MOTION_DOT = -.229E-5
MEAN_MOTION_DDOT = 0

CCSDS_OMM_VERS = 2.0
CREATION_DATE  = 
ORIGINATOR     = 

OBJECT_NAME    = SL-16 R/B
OBJECT_ID      = 1994-074B
CENTER_NAME    = EARTH
REF_FRAME      = TEME
TIME_SYSTEM    = UTC
MEAN_ELEMENT_THEORY = SGP/SGP4

EPOCH          = 2026-01-30T00:52:31.393344
MEAN_MOTION    = 14.79359406
ECCENTRICITY   = .00064343
INCLINATION    = 97.7156
RA_OF_ASC_NODE = 62.4114
ARG_OF_PERICENTER = 0.4842
MEAN_ANOMALY   = 55.8664

EPHEMERIS_TYPE = 0
CLASSIFICATION_TYPE = U
NORAD_CAT_ID   = 23343
ELEMENT_SET_NO = 999
REV_AT_EPOCH   = 68153
BSTAR          = .11085882E-3
MEAN_MOTION_DOT = .777E-5
MEAN_MOTION_DDOT = 0

CCSDS_OMM_VERS = 2.0
CREATION_DATE  = 
ORIGINATOR     = 

OBJECT_NAME    = SL-16 R/B
OBJECT_ID      = 1994-077B
CENTER_NAME    = EARTH
REF_FRAME      = TEME
TIME_SYSTEM    = UTC
MEAN_ELEMENT_THEORY = SGP/SGP4

EPOCH          = 2026-01-30T11:12:33.863904
MEAN_MOTION    = 14.15557695
ECCENTRICITY   = .0004698
INCLINATION    = 70.9820
RA_OF_ASC_NODE = 72.9041
ARG_OF_PERICENTER = 246.6827
MEAN_ANOMALY   = 113.3801

EPHEMERIS_TYPE = 0
CLASSIFICATION_TYPE = U
NORAD_CAT_ID   = 23405
ELEMENT_SET_NO = 999
REV_AT_EPOCH   = 61082
BSTAR          = -.83055E-4
MEAN_MOTION_DOT = -.21E-5
MEAN_MOTION_DDOT = 0

CCSDS_OMM_VERS = 2.0
CREATION_DATE  = 
ORIGINATOR     = 

OBJECT_NAME    = ARIANE 40+ R/B
OBJECT_ID      = 1995-021B
CENTER_NAME    = EARTH
REF_FRAME      = TEME
TIME_SYSTEM    = UTC
MEAN_ELEMENT_THEORY = SGP/SGP4

EPOCH          = 2026-01-30T10:40:55.123680
MEAN_MOTION    = 14.39742503
ECCENTRICITY   = .0005739
INCLINATION    = 98.4576
RA_OF_ASC_NODE = 102.4308
ARG_OF_PERICENTER = 253.2488
MEAN_ANOMALY   = 117.2720

EPHEMERIS_TYPE = 0
CLASSIFICATION_TYPE = U
NORAD_CAT_ID   = 23561
ELEMENT_SET_NO = 999
REV_AT_EPOCH   = 61374
BSTAR          = .15209E-3
MEAN_MOTION_DOT = .433E-5
MEAN_MOTION_DDOT = 0

CCSDS_OMM_VERS = 2.0
CREATION_DATE  = 
ORIGINATOR     = 

OBJECT_NAME    = SL-16 R/B
OBJECT_ID      = 1995-058B
CENTER_NAME    = EARTH
REF_FRAME      = TEME
TIME_SYSTEM    = UTC
MEAN_ELEMENT_THEORY = SGP/SGP4

EPOCH          = 2026-01-30T07:56:23.855424
MEAN_MOTION    = 14.15487927
ECCENTRICITY   = .0012848
INCLINATION    = 71.0192
RA_OF_ASC_NODE = 260.7896
ARG_OF_PERICENTER = 188.0730
MEAN_ANOMALY   = 172.0188

EPHEMERIS_TYPE = 0
CLASSIFICATION_TYPE = U
NORAD_CAT_ID   = 23705
ELEMENT_SET_NO = 999
REV_AT_EPOCH   = 56242
BSTAR          = .2999E-4
MEAN_MOTION_DOT = .11E-6
MEAN_MOTION_DDOT = 0

CCSDS_OMM_VERS = 2.0
CREATION_DATE  = 
ORIGINATOR     = 

OBJECT_NAME    = SL-16 R/B
OBJECT_ID      = 1996-051B
CENTER_NAME    = EARTH
REF_FRAME      = TEME
TIME_SYSTEM    = UTC
MEAN_ELEMENT_THEORY = SGP/SGP4

EPOCH          = 2026-01-30T01:44:26.108160
MEAN_MOTION    = 14.12404647
ECCENTRICITY   = .00182044
INCLINATION    = 70.7568
RA_OF_ASC_NODE = 256.9793
ARG_OF_PERICENTER = 201.2437
MEAN_ANOMALY   = 158.7929

EPHEMERIS_TYPE = 0
CLASSIFICATION_TYPE = U
NORAD_CAT_ID   = 24298
ELEMENT_SET_NO = 999
REV_AT_EPOCH   = 51619
BSTAR          = .72028046E-4
MEAN_MOTION_DOT = .84E-6
MEAN_MOTION_DDOT = 0

CCSDS_OMM_VERS = 2.0
CREATION_DATE  = 
ORIGINATOR     = 

OBJECT_NAME    = ORBVIEW 2 (SEASTAR)
OBJECT_ID      = 1997-037A
CENTER_NAME    = EARTH
REF_FRAME      = TEME
TIME_SYSTEM    = UTC
MEAN_ELEMENT_THEORY = SGP/SGP4

EPOCH          = 2026-01-30T10:18:59.096160
MEAN_MOTION    = 14.35463565
ECCENTRICITY   = .0002573
INCLINATION    = 98.8502
RA_OF_ASC_NODE = 193.7423
ARG_OF_PERICENTER = 151.8604
MEAN_ANOMALY   = 208.2720

EPHEMERIS_TYPE = 0
CLASSIFICATION_TYPE = U
NORAD_CAT_ID   = 24883
ELEMENT_SET_NO = 999
REV_AT_EPOCH   = 50298
BSTAR          = .17391E-3
MEAN_MOTION_DOT = .453E-5
MEAN_MOTION_DDOT = 0

